NORAD_CAT_ID,OBJECT_NAME,OBJECT_TYPE,EPOCH,MEAN_MOTION,ECCENTRICITY,INCLINATION,RA_OF_ASC_NODE,ARG_OF_PERICENTER,MEAN_ANOMALY,BSTAR,MEAN_MOTION_DOT,MEAN_MOTION_DDOT,TLE_LINE0,TLE_LINE1,TLE_LINE2,SEMIMAJOR_AXIS,PERIOD,APOGEE,PERIGEE,DECAYED
52546.0,STARLINK-3948,PAYLOAD,2023-04-03 16:54:51,15.08834748,6.62e-05,53.2155,256.9542,75.282,284.8246,0.00012971,1.777e-05,0.0,0 STARLINK-3948,1 52546U 22051P   23093.70476795  .00001777  00000-0  12971-3 0  9999,2 52546  53.2155 256.9542 0000662  75.2820 284.8246 15.08834748 49764,6917.896,95.438,540.219,539.303,0.0
52546.0,STARLINK-3948,PAYLOAD,2023-04-04 10:24:06,15.08848314,0.0001063,53.2156,253.6823,79.1607,280.9505,0.00084187,0.00013139,0.0,0 STARLINK-3948,1 52546U 22051P   23094.43340949  .00013139  00000-0  84187-3 0  9994,2 52546  53.2156 253.6823 0001063  79.1607 280.9505 15.08848314 49942,6917.855,95.437,540.455,538.985,0.0
52546.0,STARLINK-3948,PAYLOAD,2023-04-05 13:25:39,15.08835884,0.0001237,53.2172,248.6275,85.743,274.3704,0.0001235,1.678e-05,0.0,0 STARLINK-3948,1 52546U 22051P   23095.55948873  .00001678  00000-0  12350-3 0  9996,2 52546  53.2172 248.6275 0001237  85.7430 274.3704 15.08835884 50044,6917.893,95.438,540.614,538.902,0.0
52546.0,STARLINK-3948,PAYLOAD,2023-04-05 16:36:26,15.08839971,0.0001113,53.2169,248.0323,80.472,279.6398,0.00016268,2.302e-05,0.0,0 STARLINK-3948,1 52546U 22051P   23095.69196962  .00002302  00000-0  16268-3 0  9992,2 52546  53.2169 248.0323 0001113  80.4720 279.6398 15.08839971 50133,6917.88,95.438,540.515,538.976,0.0
52546.0,STARLINK-3948,PAYLOAD,2023-04-06 10:05:41,15.08838545,0.0001365,53.2165,244.7612,86.8108,273.304,0.0003806,5.774e-05,0.0,0 STARLINK-3948,1 52546U 22051P   23096.42061404  .00005774  00000-0  38060-3 0  9996,2 52546  53.2165 244.7612 0001365  86.8108 273.3040 15.08838545 50177,6917.885,95.438,540.694,538.806,0.0
52546.0,STARLINK-3948,PAYLOAD,2023-04-06 19:37:59,15.08849605,0.0001405,53.216,242.9769,85.7812,274.3341,0.00057441,8.868e-05,0.0,0 STARLINK-3948,1 52546U 22051P   23096.81805117  .00008868  00000-0  57441-3 0  9997,2 52546  53.2160 242.9769 0001405  85.7812 274.3341 15.08849605 50309,6917.851,95.437,540.688,538.744,0.0
52546.0,STARLINK-3948,PAYLOAD,2023-04-07 08:21:04,15.08845678,0.0001504,53.2141,240.5979,84.1403,275.9761,0.00022318,3.266e-05,0.0,0 STARLINK-3948,1 52546U 22051P   23097.34797119  .00003266  00000-0  22318-3 0  9990,2 52546  53.2141 240.5979 0001504  84.1403 275.9761 15.08845678 50381,6917.863,95.437,540.768,538.688,0.0
52546.0,STARLINK-3948,PAYLOAD,2023-04-08 01:50:19,15.08843966,9.65e-05,53.2165,237.3277,88.6469,271.4634,0.00014824,2.073e-05,0.0,0 STARLINK-3948,1 52546U 22051P   23098.07661048  .00002073  00000-0  14824-3 0  9990,2 52546  53.2165 237.3277 0000965  88.6469 271.4634 15.08843966 50493,6917.868,95.437,540.401,539.066,0.0
52546.0,STARLINK-3948,PAYLOAD,2023-04-08 12:58:01,15.08838338,0.0001154,53.2188,235.2461,100.8371,259.2751,4.3641e-05,4.07e-06,0.0,0 STARLINK-3948,1 52546U 22051P   23098.54029302  .00000407  00000-0  43641-4 0  9992,2 52546  53.2188 235.2461 0001154 100.8371 259.2751 15.08838338 50491,6917.885,95.438,540.549,538.952,0.0
52546.0,STARLINK-3948,PAYLOAD,2023-04-09 01:41:06,15.08840553,0.0001026,53.2159,232.8667,88.3366,271.7743,0.00010607,1.401e-05,0.0,0 STARLINK-3948,1 52546U 22051P   23099.07021269  .00001401  00000-0  10607-3 0  9995,2 52546  53.2159 232.8667 0001026  88.3366 271.7743 15.08840553 50641,6917.879,95.438,540.453,539.034,0.0
52546.0,STARLINK-3948,PAYLOAD,2023-04-09 09:38:02,15.08837797,9.46e-05,53.2165,231.3813,95.7501,264.3599,0.0001062,1.403e-05,0.0,0 STARLINK-3948,1 52546U 22051P   23099.40141470  .00001403  00000-0  10620-3 0  9996,2 52546  53.2165 231.3813 0000946  95.7501 264.3599 15.08837797 50629,6917.887,95.438,540.407,539.098,0.0
52546.0,STARLINK-3948,PAYLOAD,2023-04-09 15:59:34,15.08842571,9.35e-05,53.2193,230.1931,105.854,254.2555,0.00013247,1.821e-05,0.0,0 STARLINK-3948,1 52546U 22051P   23099.66637226  .00001821  00000-0  13247-3 0  9995,2 52546  53.2193 230.1931 0000935 105.8540 254.2555 15.08842571 50662,6917.873,95.437,540.384,539.091,0.0
52546.0,STARLINK-3948,PAYLOAD,2023-04-10 09:28:49,15.08837146,9.52e-05,53.2187,226.9215,95.7082,264.4019,7.0297e-05,8.31e-06,0.0,0 STARLINK-3948,1 52546U 22051P   23100.39501559  .00000831  00000-0  70297-4 0  9996,2 52546  53.2187 226.9215 0000952  95.7082 264.4019 15.08837146 50840,6917.889,95.438,540.413,539.096,0.0
52546.0,STARLINK-3948,PAYLOAD,2023-04-10 17:25:44,15.08844964,0.0001242,53.2174,225.4335,81.7108,278.4025,0.00014797,2.068e-05,0.0,0 STARLINK-3948,1 52546U 22051P   23100.72621237  .00002068  00000-0  14797-3 0  9995,2 52546  53.2174 225.4335 0001242  81.7108 278.4025 15.08844964 50826,6917.865,95.437,540.589,538.871,0.0
52546.0,STARLINK-3948,PAYLOAD,2023-04-11 12:30:22,15.08840938,9.49e-05,53.2163,221.865,86.0157,274.0944,7.8404e-05,9.6e-06,0.0,0 STARLINK-3948,1 52546U 22051P   23101.52109336  .00000960  00000-0  78404-4 0  9990,2 52546  53.2163 221.8650 0000949  86.0157 274.0944 15.08840938 50941,6917.878,95.437,540.399,539.086,0.0
52546.0,STARLINK-3948,PAYLOAD,2023-04-12 13:56:32,15.08844168,0.0001247,53.2145,217.1072,83.5878,276.5256,6.3771e-05,7.27e-06,0.0,0 STARLINK-3948,1 52546U 22051P   23102.58093179  .00000727  00000-0  63771-4 0  9996,2 52546  53.2145 217.1072 0001247  83.5878 276.5256 15.08844168 51102,6917.868,95.437,540.595,538.87,0.0
52546.0,STARLINK-3948,PAYLOAD,2023-04-13 01:04:15,15.08831579,0.0001632,53.2155,215.0263,72.5019,287.6152,8.2918e-06,-1.56e-06,0.0,0 STARLINK-3948,1 52546U 22051P   23103.04461957 -.00000156  00000-0  82918-5 0  9993,2 52546  53.2155 215.0263 0001632  72.5019 287.6152 15.08831579 51172,6917.906,95.438,540.9,538.642,0.0
52546.0,STARLINK-3948,PAYLOAD,2023-04-13 16:58:05,15.0885025,0.0001051,53.2152,212.0518,70.6834,289.4271,0.00022107,3.233e-05,0.0,0 STARLINK-3948,1 52546U 22051P   23103.70700920  .00003233  00000-0  22107-3 0  9992,2 52546  53.2152 212.0518 0001051  70.6834 289.4271 15.08850250 51346,6917.849,95.437,540.441,538.987,0.0
52546.0,STARLINK-3948,PAYLOAD,2023-04-14 10:27:21,15.08827916,0.0001022,53.2147,208.7809,65.9137,294.1962,-4.0686e-05,-9.35e-06,0.0,0 STARLINK-3948,1 52546U 22051P   23104.43566378 -.00000935  00000-0 -40686-4 0  9991,2 52546  53.2147 208.7809 0001022  65.9137 294.1962 15.08827916 51451,6917.917,95.438,540.489,539.075,0.0
52546.0,STARLINK-3948,PAYLOAD,2023-04-14 12:02:44,15.08827198,0.0001302,53.2175,208.486,73.832,286.2815,-7.1407e-05,-1.424e-05,0.0,0 STARLINK-3948,1 52546U 22051P   23104.50190501 -.00001424  00000-0 -71407-4 0  9999,2 52546  53.2175 208.4860 0001302  73.8320 286.2815 15.08827198 51393,6917.92,95.438,540.685,538.884,0.0
52546.0,STARLINK-3948,PAYLOAD,2023-04-15 07:07:21,15.08841967,0.0001257,53.2169,204.916,66.219,293.8934,0.00024383,3.595e-05,0.0,0 STARLINK-3948,1 52546U 22051P   23105.29678115  .00003595  00000-0  24383-3 0  9997,2 52546  53.2169 204.9160 0001257  66.2190 293.8934 15.08841967 51587,6917.874,95.437,540.609,538.87,0.0
52546.0,STARLINK-3948,PAYLOAD,2023-04-15 13:28:53,15.08862785,0.000113,53.2159,203.7251,76.6637,283.4481,0.00052319,8.054e-05,0.0,0 STARLINK-3948,1 52546U 22051P   23105.56173056  .00008054  00000-0  52319-3 0  9996,2 52546  53.2159 203.7251 0001130  76.6637 283.4481 15.08862785 51623,6917.811,95.436,540.457,538.894,0.0
52546.0,STARLINK-3948,PAYLOAD,2023-04-16 05:22:45,15.08850689,0.0001204,53.2168,200.756,100.4493,259.6635,0.00026545,3.94e-05,0.0,0 STARLINK-3948,1 52546U 22051P   23106.22413283  .00003940  00000-0  26545-3 0  9990,2 52546  53.2168 200.7560 0001204 100.4493 259.6635 15.08850689 51728,6917.848,95.437,540.546,538.88,0.0
52546.0,STARLINK-3948,PAYLOAD,2023-04-16 13:19:40,15.08849152,0.0001317,53.2175,199.2658,94.6199,265.4943,0.00023818,3.506e-05,0.0,0 STARLINK-3948,1 52546U 22051P   23106.55533200  .00003506  00000-0  23818-3 0  9996,2 52546  53.2175 199.2658 0001317  94.6199 265.4943 15.08849152 51706,6917.852,95.437,540.628,538.806,0.0
52546.0,STARLINK-3948,PAYLOAD,2023-04-17 05:13:32,15.08840214,0.0001212,53.218,196.2953,87.1651,272.948,-0.00010288,-1.925e-05,0.0,0 STARLINK-3948,1 52546U 22051P   23107.21773260 -.00001925  00000-0 -10288-3 0  9994,2 52546  53.2180 196.2953 0001212  87.1651 272.9480 15.08840214 51878,6917.88,95.438,540.583,538.906,0.0
52546.0,STARLINK-3948,PAYLOAD,2023-04-17 13:10:28,15.08836744,0.000158,53.2173,194.8061,88.0422,272.0751,-0.00021109,-3.646e-05,0.0,0 STARLINK-3948,1 52546U 22051P   23107.54893817 -.00003646  00000-0 -21109-3 0  9997,2 52546  53.2173 194.8061 0001580  88.0422 272.0751 15.08836744 51851,6917.89,95.438,540.848,538.662,0.0
52546.0,STARLINK-3948,PAYLOAD,2023-04-17 14:45:51,15.0884056,0.0001622,53.2179,194.5091,89.5628,270.555,-0.0001403,-2.52e-05,0.0,0 STARLINK-3948,1 52546U 22051P   23107.61517639 -.00002520  00000-0 -14030-3 0  9995,2 52546  53.2179 194.5091 0001622  89.5628 270.5550 15.08840560 51860,6917.879,95.438,540.866,538.622,0.0
52546.0,STARLINK-3948,PAYLOAD,2023-04-18 09:50:29,15.08840067,0.0001653,53.2182,190.9405,101.4452,258.6725,0.00012018,1.625e-05,0.0,0 STARLINK-3948,1 52546U 22051P   23108.41005968  .00001625  00000-0  12018-3 0  9998,2 52546  53.2182 190.9405 0001653 101.4452 258.6725 15.08840067 51982,6917.88,95.438,540.889,538.602,0.0
52546.0,STARLINK-3948,PAYLOAD,2023-04-18 13:01:15,15.08842713,0.0001531,53.2175,190.345,97.7743,262.3423,0.00020612,2.994e-05,0.0,0 STARLINK-3948,1 52546U 22051P   23108.54253835  .00002994  00000-0  20612-3 0  9999,2 52546  53.2175 190.3450 0001531  97.7743 262.3423 15.08842713 52071,6917.872,95.437,540.796,538.678,0.0
52546.0,STARLINK-3948,PAYLOAD,2023-04-19 04:55:07,15.08836658,0.0001917,53.2167,187.3728,74.5617,285.5587,0.00021442,3.126e-05,0.0,0 STARLINK-3948,1 52546U 22051P   23109.20494590  .00003126  00000-0  21442-3 0  9998,2 52546  53.2167 187.3728 0001917  74.5617 285.5587 15.08836658 52100,6917.891,95.438,541.082,538.429,0.0
